NORAD_CAT_ID,OBJECT_NAME,OBJECT_TYPE,EPOCH,MEAN_MOTION,ECCENTRICITY,INCLINATION,RA_OF_ASC_NODE,ARG_OF_PERICENTER,MEAN_ANOMALY,BSTAR,MEAN_MOTION_DOT,MEAN_MOTION_DDOT,TLE_LINE0,TLE_LINE1,TLE_LINE2,SEMIMAJOR_AXIS,PERIOD,APOGEE,PERIGEE,DECAYED
53425.0,STARLINK-4531,PAYLOAD,2024-02-18 12:00:29,15.08834697,0.0001291,53.2164,241.8534,87.4494,272.6646,6.0793e-05,6.8e-06,0.0,0 STARLINK-4531,1 53425U 22097AP  24049.50034302  .00000680  00000-0  60793-4 0  9998,2 53425  53.2164 241.8534 0001291  87.4494 272.6646 15.08834697 84914,6917.897,95.438,540.655,538.868,0.0
53425.0,STARLINK-4531,PAYLOAD,2024-02-18 19:57:25,15.08839282,0.0001269,53.2162,240.3669,90.3279,269.7858,4.2287e-05,3.85e-06,0.0,0 STARLINK-4531,1 53425U 22097AP  24049.83154093  .00000385  00000-0  42287-4 0  9994,2 53425  53.2162 240.3669 0001269  90.3279 269.7858 15.08839282 85417,6917.883,95.438,540.625,538.87,0.0
53425.0,STARLINK-4531,PAYLOAD,2024-02-19 05:29:43,15.08840909,0.0001297,53.2164,238.5825,89.6478,270.4663,5.7245e-05,6.23e-06,0.0,0 STARLINK-4531,1 53425U 22097AP  24050.22897962  .00000623  00000-0  57245-4 0  9993,2 53425  53.2164 238.5825 0001297  89.6478 270.4663 15.08840909 85472,6917.878,95.437,540.64,538.845,0.0
53425.0,STARLINK-4531,PAYLOAD,2024-02-19 19:48:12,15.08840217,0.0001381,53.2168,235.9067,87.857,272.258,2.3938e-05,9.3e-07,0.0,0 STARLINK-4531,1 53425U 22097AP  24050.82514158  .00000093  00000-0  23938-4 0  9995,2 53425  53.2168 235.9067 0001381  87.8570 272.2580 15.08840217 85113,6917.88,95.438,540.7,538.789,0.0
53425.0,STARLINK-4531,PAYLOAD,2024-02-19 21:23:35,15.08841918,0.0001399,53.217,235.6095,88.2343,271.881,3.5762e-05,2.81e-06,0.0,0 STARLINK-4531,1 53425U 22097AP  24050.89137967  .00000281  00000-0  35762-4 0  9998,2 53425  53.2170 235.6095 0001399  88.2343 271.8810 15.08841918 85576,6917.875,95.437,540.707,538.772,0.0
53425.0,STARLINK-4531,PAYLOAD,2024-02-20 05:20:31,15.08822229,0.0001349,53.2163,234.1221,88.0994,272.0152,0.00025662,3.797e-05,0.0,0 STARLINK-4531,1 53425U 22097AP  24051.22258738  .00003797  00000-0  25662-3 0  9998,2 53425  53.2163 234.1221 0001349  88.0994 272.0152 15.08822229 85170,6917.935,95.439,540.733,538.866,0.0
53425.0,STARLINK-4531,PAYLOAD,2024-02-20 19:38:59,15.08841945,0.0001384,53.2162,231.4453,85.6844,274.4307,6.2073e-05,7e-06,0.0,0 STARLINK-4531,1 53425U 22097AP  24051.81873961  .00000700  00000-0  62073-4 0  9993,2 53425  53.2162 231.4453 0001384  85.6844 274.4307 15.08841945 85266,6917.874,95.437,540.697,538.782,0.0
53425.0,STARLINK-4531,PAYLOAD,2024-02-20 21:14:21,15.08845165,0.0001396,53.2162,231.1477,85.4684,274.6468,8.3945e-05,1.048e-05,0.0,0 STARLINK-4531,1 53425U 22097AP  24051.88497663  .00001048  00000-0  83945-4 0  9998,2 53425  53.2162 231.1477 0001396  85.4684 274.6468 15.08845165 85721,6917.865,95.437,540.695,538.764,0.0
53425.0,STARLINK-4531,PAYLOAD,2024-02-21 05:11:17,15.08844035,0.0001374,53.2164,229.6604,87.0148,273.1002,2.7499e-05,1.5e-06,0.0,0 STARLINK-4531,1 53425U 22097AP  24052.21617810  .00000150  00000-0  27499-4 0  9999,2 53425  53.2164 229.6604 0001374  87.0148 273.1002 15.08844035 85774,6917.868,95.437,540.684,538.783,0.0
53425.0,STARLINK-4531,PAYLOAD,2024-02-21 17:54:22,15.08844917,0.0001366,53.2163,227.2804,87.6452,272.4697,6.2342e-05,7.05e-06,0.0,0 STARLINK-4531,1 53425U 22097AP  24052.74609546  .00000705  00000-0  62342-4 0  9996,2 53425  53.2163 227.2804 0001366  87.6452 272.4697 15.08844917 85854,6917.865,95.437,540.675,538.785,0.0
53425.0,STARLINK-4531,PAYLOAD,2024-02-22 11:23:37,15.08838145,0.0001398,53.2158,224.0112,82.2087,277.9064,2.0589e-05,4e-07,0.0,0 STARLINK-4531,1 53425U 22097AP  24053.47474033  .00000040  00000-0  20589-4 0  9997,2 53425  53.2158 224.0112 0001398  82.2087 277.9064 15.08838145 85512,6917.886,95.438,540.718,538.784,0.0
53425.0,STARLINK-4531,PAYLOAD,2024-02-22 17:45:09,15.08844162,0.0001346,53.2173,222.8212,79.84,280.2744,6.8795e-06,-1.78e-06,0.0,0 STARLINK-4531,1 53425U 22097AP  24053.73969721 -.00000178  00000-0  68795-5 0  9994,2 53425  53.2173 222.8212 0001346  79.8400 280.2744 15.08844162 86003,6917.868,95.437,540.664,538.802,0.0
53425.0,STARLINK-4531,PAYLOAD,2024-02-23 14:25:11,15.08837261,0.0001473,53.2169,218.9565,74.8861,285.2294,-2.2932e-05,-6.53e-06,0.0,0 STARLINK-4531,1 53425U 22097AP  24054.60082388 -.00000653  00000-0 -22932-4 0  9997,2 53425  53.2169 218.9565 0001473  74.8861 285.2294 15.08837261 86133,6917.889,95.438,540.773,538.735,0.0
53425.0,STARLINK-4531,PAYLOAD,2024-02-23 17:35:57,15.0884014,0.0001463,53.2169,218.3616,82.0238,278.092,4.1854e-07,-2.81e-06,0.0,0 STARLINK-4531,1 53425U 22097AP  24054.73330130 -.00000281  00000-0  41854-6 0  9994,2 53425  53.2169 218.3616 0001463  82.0238 278.0920 15.08840140 85700,6917.88,95.438,540.757,538.733,0.0
53425.0,STARLINK-4531,PAYLOAD,2024-02-24 14:15:57,15.08836264,0.0001258,53.2175,214.4969,78.085,282.0283,0.00012449,1.694e-05,0.0,0 STARLINK-4531,1 53425U 22097AP  24055.59442097  .00001694  00000-0  12449-3 0  9998,2 53425  53.2175 214.4969 0001258  78.0850 282.0283 15.08836264 86285,6917.892,95.438,540.627,538.887,0.0
53425.0,STARLINK-4531,PAYLOAD,2024-02-24 17:26:43,15.08842444,0.0001428,53.217,213.9013,81.259,278.8564,0.00010664,1.41e-05,0.0,0 STARLINK-4531,1 53425U 22097AP  24055.72689806  .00001410  00000-0  10664-3 0  9997,2 53425  53.2170 213.9013 0001428  81.2590 278.8564 15.08842444 86305,6917.873,95.437,540.726,538.75,0.0
53425.0,STARLINK-4531,PAYLOAD,2024-02-25 10:55:58,15.08838235,0.0001362,53.2167,210.6311,84.1788,275.936,5.2314e-05,5.45e-06,0.0,0 STARLINK-4531,1 53425U 22097AP  24056.45554289  .00000545  00000-0  52314-4 0  9991,2 53425  53.2167 210.6311 0001362  84.1788 275.9360 15.08838235 85960,6917.886,95.438,540.693,538.809,0.0
53425.0,STARLINK-4531,PAYLOAD,2024-02-25 14:06:45,15.08840717,0.0001358,53.217,210.0367,84.2031,275.9116,6.9722e-05,8.22e-06,0.0,0 STARLINK-4531,1 53425U 22097AP  24056.58802098  .00000822  00000-0  69722-4 0  9998,2 53425  53.2170 210.0367 0001358  84.2031 275.9116 15.08840717 86436,6917.878,95.438,540.683,538.804,0.0
53425.0,STARLINK-4531,PAYLOAD,2024-02-25 17:17:31,15.0884174,0.0001359,53.2166,209.4416,83.6484,276.4663,0.00013611,1.879e-05,0.0,0 STARLINK-4531,1 53425U 22097AP  24056.72049804  .00001879  00000-0  13611-3 0  9990,2 53425  53.2166 209.4416 0001359  83.6484 276.4663 15.08841740 86456,6917.875,95.437,540.68,538.8,0.0
53425.0,STARLINK-4531,PAYLOAD,2024-02-26 02:49:50,15.08832551,0.0001185,53.2163,207.6575,89.7615,270.3513,-1.7957e-07,-2.91e-06,0.0,0 STARLINK-4531,1 53425U 22097AP  24057.11794877 -.00000291  00000-0 -17957-6 0  9990,2 53425  53.2163 207.6575 0001185  89.7615 270.3513 15.08832551 86063,6917.903,95.438,540.588,538.948,0.0
53425.0,STARLINK-4531,PAYLOAD,2024-02-26 13:57:34,15.08823287,0.0001706,53.2175,205.5778,97.1533,262.9653,-0.00012734,-2.313e-05,0.0,0 STARLINK-4531,1 53425U 22097AP  24057.58164416 -.00002313  00000-0 -12734-3 0  9993,2 53425  53.2175 205.5778 0001706  97.1533 262.9653 15.08823287 86584,6917.931,95.439,540.977,538.616,0.0
53425.0,STARLINK-4531,PAYLOAD,2024-02-26 17:08:20,15.0882269,0.0001429,53.2169,204.9841,101.0565,259.0588,-0.00012058,-2.206e-05,0.0,0 STARLINK-4531,1 53425U 22097AP  24057.71412509 -.00002206  00000-0 -12058-3 0  9997,2 53425  53.2169 204.9841 0001429 101.0565 259.0588 15.08822690 86157,6917.933,95.439,540.787,538.81,0.0
53425.0,STARLINK-4531,PAYLOAD,2024-02-27 09:02:11,15.08835295,0.0001112,53.2156,202.0039,107.2515,252.8598,-4.4282e-05,-9.92e-06,0.0,0 STARLINK-4531,1 53425U 22097AP  24058.37651824 -.00000992  00000-0 -44282-4 0  9990,2 53425  53.2156 202.0039 0001112 107.2515 252.8598 15.08835295 86251,6917.895,95.438,540.529,538.991,0.0
53425.0,STARLINK-4531,PAYLOAD,2024-02-27 13:48:20,15.08838839,0.0001309,53.2165,201.1152,94.1094,266.0048,2.5399e-06,-2.47e-06,0.0,0 STARLINK-4531,1 53425U 22097AP  24058.57523518 -.00000247  00000-0  25399-5 0  9991,2 53425  53.2165 201.1152 0001309  94.1094 266.0048 15.08838839 86738,6917.884,95.438,540.654,538.843,0.0
53425.0,STARLINK-4531,PAYLOAD,2024-02-27 15:23:43,15.08843993,0.0001476,53.2173,200.818,100.3785,259.7373,4.8446e-05,4.83e-06,0.0,0 STARLINK-4531,1 53425U 22097AP  24058.64147093  .00000483  00000-0  48446-4 0  9997,2 53425  53.2173 200.8180 0001476 100.3785 259.7373 15.08843993 86294,6917.868,95.437,540.754,538.712,0.0
53425.0,STARLINK-4531,PAYLOAD,2024-02-28 13:39:07,15.08834811,0.0001521,53.2163,196.6547,85.699,274.4176,0.00022942,3.365e-05,0.0,0 STARLINK-4531,1 53425U 22097AP  24059.56883489  .00003365  00000-0  22942-3 0  9999,2 53425  53.2163 196.6547 0001521  85.6990 274.4176 15.08834811 86436,6917.896,95.438,540.813,538.709,0.0
53425.0,STARLINK-4531,PAYLOAD,2024-02-28 15:14:30,15.08834419,0.0001253,53.215,196.3553,88.1472,271.9664,0.00024818,3.664e-05,0.0,0 STARLINK-4531,1 53425U 22097AP  24059.63507428  .00003664  00000-0  24818-3 0  9999,2 53425  53.2150 196.3553 0001253  88.1472 271.9664 15.08834419 86899,6917.897,95.438,540.629,538.896,0.0
53425.0,STARLINK-4531,PAYLOAD,2024-02-28 18:25:16,15.08844374,0.0001198,53.2159,195.7575,96.7901,263.3228,0.00023308,3.424e-05,0.0,0 STARLINK-4531,1 53425U 22097AP  24059.76754775  .00003424  00000-0  23308-3 0  9999,2 53425  53.2159 195.7575 0001198  96.7901 263.3228 15.08844374 86460,6917.867,95.437,540.561,538.903,0.0
53425.0,STARLINK-4531,PAYLOAD,2024-02-29 08:43:45,15.08835681,8.76e-05,53.2151,193.0844,70.9103,289.1984,-7.1917e-05,-1.432e-05,0.0,0 STARLINK-4531,1 53425U 22097AP  24060.36372446 -.00001432  00000-0 -71917-4 0  9997,2 53425  53.2151 193.0844 0000876  70.9103 289.1984 15.08835681 86558,6917.894,95.438,540.365,539.153,0.0
53425.0,STARLINK-4531,PAYLOAD,2024-02-29 15:05:18,15.08832998,6.28e-05,53.2152,191.8947,74.9579,285.1482,-9.1565e-05,-1.744e-05,0.0,0 STARLINK-4531,1 53425U 22097AP  24060.62868652 -.00001744  00000-0 -91565-4 0  9992,2 53425  53.2152 191.8947 0000628  74.9579 285.1482 15.08832998 87047,6917.902,95.438,540.201,539.332,0.0
